EUTELSAT 8 WEST B       
1 40875U 15039B   25258.22610885 -.00000081  00000+0  00000+0 0  9994
2 40875   0.0677   7.4757 0003721 167.7179 252.6524  1.00272292 36894
EUTELSAT 9B             
1 41310U 16005A   25258.22948888  .00000046  00000+0  00000+0 0  9990
2 41310   0.0545  71.6547 0002491 145.7373 228.6625  1.00273079 35357
EUTELSAT 65 WEST A      
1 41382U 16014A   25258.28292064 -.00000292  00000+0  00000+0 0  9997
2 41382   0.0755  42.7820 0002176 137.8910 210.4859  1.00272503 34775
EUTELSAT 117 WEST B     
1 41589U 16038B   25258.19995832 -.00000027  00000+0  00000+0 0  9991
2 41589   0.0373 337.1233 0000372 101.9913 230.2954  1.00269593 33905
EUTELSAT 172B           
1 42741U 17029B   25257.90503222 -.00000018  00000+0  00000+0 0  9999
2 42741   0.0167 167.6691 0000731 106.3099 217.9717  1.00281938 30974
EUTELSAT 7C             
1 44334U 19034B   25258.22905554  .00000032  00000+0  00000+0 0  9992
2 44334   0.0736 185.5543 0003124 339.4276 278.9018  1.00271056  4079
EUTELSAT 5 WEST B       
1 44624U 19067A   25258.22671553 -.00000058  00000+0  00000+0 0  9998
2 44624   0.0809 322.8086 0003130 219.7558 248.4890  1.00271079 21681
EUTELSAT KONNECT        
1 45027U 20005B   25258.22914221  .00000033  00000+0  00000+0 0  9994
2 45027   0.0649  98.8267 0001604  78.1136 267.1738  1.00269000 21562
